{
  "type": "FeatureCollection",
  "features": [
    {
      "type": "Feature",
      "properties": {
        "norad_id": 33860,
        "name": "IRIDIUM 33 DEB",
        "group": "iridium-33-debris",
        "lat": 66.83902738439106,
        "lon": 29.77000813012955,
        "alt_km": 664.8203219617471,
        "timestamp": "2025-12-26T05:31:12.891433+00:00",
        "meta_object_name": "IRIDIUM 33 DEB",
        "meta_object_id": "1997-051AD",
        "meta_epoch": "2025-12-25T01:40:13.916928",
        "meta_mean_motion": 14.67512307,
        "meta_eccentricity": 0.00060597,
        "meta_inclination": 86.3823,
        "meta_ra_of_asc_node": 21.779,
        "meta_arg_of_pericenter": 309.0617,
        "meta_mean_anomaly": 111.5218,
        "meta_ephemeris_type": 0,
        "meta_classification_type": "U",
        "meta_norad_cat_id": 33860,
        "meta_element_set_no": 999,
        "meta_rev_at_epoch": 88903,
        "meta_bstar": 0.0011962769,
        "meta_mean_motion_dot": 6.804e-05,
        "meta_mean_motion_ddot": 0,
        "tle_line1": "1 33860U 97051AD  25359.06960552  .00006804  00000+0  11963-2 0  9998",
        "tle_line2": "2 33860  86.3823  21.7790 0006059 309.0617 111.5218 14.67512307889037"
      },
      "geometry": {
        "type": "Point",
        "coordinates": [
          29.77000813012955,
          66.83902738439106
        ]
      }
    },
    {
      "type": "Feature",
      "properties": {
        "norad_id": 33862,
        "name": "IRIDIUM 33 DEB",
        "group": "iridium-33-debris",
        "lat": -25.864125988951653,
        "lon": -146.67498577912784,
        "alt_km": 704.4479252462197,
        "timestamp": "2025-12-26T05:31:12.891444+00:00",
        "meta_object_name": "IRIDIUM 33 DEB",
        "meta_object_id": "1997-051AF",
        "meta_epoch": "2025-12-25T12:47:12.217920",
        "meta_mean_motion": 14.69679018,
        "meta_eccentricity": 0.005205,
        "meta_inclination": 86.4084,
        "meta_ra_of_asc_node": 31.8876,
        "meta_arg_of_pericenter": 26.1582,
        "meta_mean_anomaly": 93.1251,
        "meta_ephemeris_type": 0,
        "meta_classification_type": "U",
        "meta_norad_cat_id": 33862,
        "meta_element_set_no": 999,
        "meta_rev_at_epoch": 89011,
        "meta_bstar": 0.0015453,
        "meta_mean_motion_dot": 9.418e-05,
        "meta_mean_motion_ddot": 0,
        "tle_line1": "1 33862U 97051AF  25359.53278030  .00009418  00000+0  15453-2 0  9997",
        "tle_line2": "2 33862  86.4084  31.8876 0052050  26.1582  93.1251 14.69679018890114"
      },
      "geometry": {
        "type": "Point",
        "coordinates": [
          -146.67498577912784,
          -25.864125988951653
        ]
      }
    },
    {
      "type": "Feature",
      "properties": {
        "norad_id": 33866,
        "name": "IRIDIUM 33 DEB",
        "group": "iridium-33-debris",
        "lat": -75.60011529245728,
        "lon": 72.7292085646211,
        "alt_km": 894.9617463497943,
        "timestamp": "2025-12-26T05:31:12.891455+00:00",
        "meta_object_name": "IRIDIUM 33 DEB",
        "meta_object_id": "1997-051AK",
        "meta_epoch": "2025-12-25T18:40:33.881088",
        "meta_mean_motion": 14.25314214,
        "meta_eccentricity": 0.01153113,
        "meta_inclination": 86.2996,
        "meta_ra_of_asc_node": 87.5194,
        "meta_arg_of_pericenter": 120.0722,
        "meta_mean_anomaly": 6.5458,
        "meta_ephemeris_type": 0,
        "meta_classification_type": "U",
        "meta_norad_cat_id": 33866,
        "meta_element_set_no": 999,
        "meta_rev_at_epoch": 86996,
        "meta_bstar": 0.00059555081,
        "meta_mean_motion_dot": 1.523e-05,
        "meta_mean_motion_ddot": 0,
        "tle_line1": "1 33866U 97051AK  25359.77816992  .00001523  00000+0  59555-3 0  9993",
        "tle_line2": "2 33866  86.2996  87.5194 0115311 120.0722   6.5458 14.25314214869961"
      },
      "geometry": {
        "type": "Point",
        "coordinates": [
          72.7292085646211,
          -75.60011529245728
        ]
      }
    },
    {
      "type": "Feature",
      "properties": {
        "norad_id": 33870,
        "name": "IRIDIUM 33 DEB",
        "group": "iridium-33-debris",
        "lat": -59.03642630485617,
        "lon": 46.40970472763992,
        "alt_km": 761.8628978850702,
        "timestamp": "2025-12-26T05:31:12.891466+00:00",
        "meta_object_name": "IRIDIUM 33 DEB",
        "meta_object_id": "1997-051AP",
        "meta_epoch": "2025-12-25T13:47:27.423744",
        "meta_mean_motion": 14.45913655,
        "meta_eccentricity": 0.0022685,
        "meta_inclination": 86.3733,
        "meta_ra_of_asc_node": 52.7586,
        "meta_arg_of_pericenter": 137.4912,
        "meta_mean_anomaly": 353.9762,
        "meta_ephemeris_type": 0,
        "meta_classification_type": "U",
        "meta_norad_cat_id": 33870,
        "meta_element_set_no": 999,
        "meta_rev_at_epoch": 88322,
        "meta_bstar": 0.00071363,
        "meta_mean_motion_dot": 2.564e-05,
        "meta_mean_motion_ddot": 0,
        "tle_line1": "1 33870U 97051AP  25359.57462296  .00002564  00000+0  71363-3 0  9997",
        "tle_line2": "2 33870  86.3733  52.7586 0022685 137.4912 353.9762 14.45913655883227"
      },
      "geometry": {
        "type": "Point",
        "coordinates": [
          46.40970472763992,
          -59.03642630485617
        ]
      }
    },
    {
      "type": "Feature",
      "properties": {
        "norad_id": 33881,
        "name": "IRIDIUM 33 DEB",
        "group": "iridium-33-debris",
        "lat": -27.195862119516935,
        "lon": 99.01779755014563,
        "alt_km": 749.4236242388006,
        "timestamp": "2025-12-26T05:31:12.891477+00:00",
        "meta_object_name": "IRIDIUM 33 DEB",
        "meta_object_id": "1997-051BA",
        "meta_epoch": "2025-12-24T19:37:00.349824",
        "meta_mean_motion": 14.5678795,
        "meta_eccentricity": 0.00611156,
        "meta_inclination": 86.3859,
        "meta_ra_of_asc_node": 101.4931,
        "meta_arg_of_pericenter": 135.6602,
        "meta_mean_anomaly": 353.6404,
        "meta_ephemeris_type": 0,
        "meta_classification_type": "U",
        "meta_norad_cat_id": 33881,
        "meta_element_set_no": 999,
        "meta_rev_at_epoch": 87676,
        "meta_bstar": 0.0022055938,
        "meta_mean_motion_dot": 0.0001015,
        "meta_mean_motion_ddot": 0,
        "tle_line1": "1 33881U 97051BA  25358.81736516  .00010150  00000+0  22056-2 0  9998",
        "tle_line2": "2 33881  86.3859 101.4931 0061115 135.6602 353.6404 14.56787950876761"
      },
      "geometry": {
        "type": "Point",
        "coordinates": [
          99.01779755014563,
          -27.195862119516935
        ]
      }
    },
    {
      "type": "Feature",
      "properties": {
        "norad_id": 33884,
        "name": "IRIDIUM 33 DEB",
        "group": "iridium-33-debris",
        "lat": -31.6202260404426,
        "lon": -174.03267339077684,
        "alt_km": 639.5006975282231,
        "timestamp": "2025-12-26T05:31:12.891487+00:00",
        "meta_object_name": "IRIDIUM 33 DEB",
        "meta_object_id": "1997-051BD",
        "meta_epoch": "2025-12-25T23:47:22.731648",
        "meta_mean_motion": 14.7769475,
        "meta_eccentricity": 0.00087986,
        "meta_inclination": 86.3707,
        "meta_ra_of_asc_node": 3.8355,
        "meta_arg_of_pericenter": 270.5089,
        "meta_mean_anomaly": 111.7796,
        "meta_ephemeris_type": 0,
        "meta_classification_type": "U",
        "meta_norad_cat_id": 33884,
        "meta_element_set_no": 999,
        "meta_rev_at_epoch": 89043,
        "meta_bstar": 0.001538831,
        "meta_mean_motion_dot": 0.00011058,
        "meta_mean_motion_ddot": 0,
        "tle_line1": "1 33884U 97051BD  25359.99123532  .00011058  00000+0  15388-2 0  9997",
        "tle_line2": "2 33884  86.3707   3.8355 0008798 270.5089 111.7796 14.77694750890432"
      },
      "geometry": {
        "type": "Point",
        "coordinates": [
          -174.03267339077684,
          -31.6202260404426
        ]
      }
    },
    {
      "type": "Feature",
      "properties": {
        "norad_id": 33886,
        "name": "IRIDIUM 33 DEB",
        "group": "iridium-33-debris",
        "lat": -74.49493333336389,
        "lon": 48.3663107903457,
        "alt_km": 779.0901006690392,
        "timestamp": "2025-12-26T05:31:12.891498+00:00",
        "meta_object_name": "IRIDIUM 33 DEB",
        "meta_object_id": "1997-051BF",
        "meta_epoch": "2025-12-25T15:21:52.682112",
        "meta_mean_motion": 14.36066491,
        "meta_eccentricity": 0.0013547,
        "meta_inclination": 86.3819,
        "meta_ra_of_asc_node": 61.7984,
        "meta_arg_of_pericenter": 196.0416,
        "meta_mean_anomaly": 281.5931,
        "meta_ephemeris_type": 0,
        "meta_classification_type": "U",
        "meta_norad_cat_id": 33886,
        "meta_element_set_no": 999,
        "meta_rev_at_epoch": 88237,
        "meta_bstar": 0.00019058,
        "meta_mean_motion_dot": 5.74e-06,
        "meta_mean_motion_ddot": 0,
        "tle_line1": "1 33886U 97051BF  25359.64019308  .00000574  00000+0  19058-3 0  9996",
        "tle_line2": "2 33886  86.3819  61.7984 0013547 196.0416 281.5931 14.36066491882374"
      },
      "geometry": {
        "type": "Point",
        "coordinates": [
          48.3663107903457,
          -74.49493333336389
        ]
      }
    }
  ]
}